ONEWEB-0053             
1 45157U 20008AC  24113.71096179 -.00000646  00000+0 -18864-2 0  9999
2 45157  87.8992 192.3964 0002013  95.1209 265.0148 13.10372708205042
ONEWEB-0054             
1 45158U 20008AD  24113.74587580  .00000656  00000+0  18418-2 0  9998
2 45158  87.8990 192.3717 0002131 102.8979 257.2387 13.10374018205165
ONEWEB-0056             
1 45159U 20008AE  24113.72758494  .00000127  00000+0  32777-3 0  9999
2 45159  87.8990 192.3715 0001925  95.7743 264.3603 13.10376482205317
ONEWEB-0057             
1 45160U 20008AF  24113.73422092  .00000433  00000+0  12045-2 0  9999
2 45160  87.8996 192.3692 0001916 102.2011 257.9331 13.10376157205484
ONEWEB-0058             
1 45161U 20008AG  24114.17921125 -.00000689  00000+0 -20114-2 0  9991
2 45161  87.8988 192.3202 0001909 104.1884 255.9455 13.10376415206364
ONEWEB-0059             
1 45162U 20008AH  24114.17575551 -.00000349  00000+0 -10354-2 0  9998
2 45162  87.8992 192.2983 0002108 105.9616 254.1744 13.10374948206258
ONEWEB-0062             
1 45163U 20008AJ  24113.74421353  .00000680  00000+0  19121-2 0  9998
2 45163  87.8991 192.3682 0002137 102.4451 257.6916 13.10374229205324
ONEWEB-0065             
1 45164U 20008AK  24114.18073346 -.00000203  00000+0 -61724-3 0  9993
2 45164  87.8997 192.2865 0001966  97.0770 263.0581 13.10375123205812
